{
  "type": "FeatureCollection",
  "features": [
    {
      "type": "Feature",
      "properties": {
        "norad_id": 66468,
        "name": "STARLINK-35331",
        "group": "last-30-days",
        "lat": -4.536796175983537,
        "lon": -107.48752791631944,
        "alt_km": 444.64708626202264,
        "timestamp": "2025-12-13T08:49:14.455308+00:00",
        "meta_object_name": "STARLINK-35331",
        "meta_object_id": "2025-262N",
        "meta_epoch": "2025-12-12T20:00:01.999872",
        "meta_mean_motion": 15.40652515,
        "meta_eccentricity": 0.00017487,
        "meta_inclination": 43.0006,
        "meta_ra_of_asc_node": 70.7067,
        "meta_arg_of_pericenter": 285.8883,
        "meta_mean_anomaly": 174.4362,
        "meta_ephemeris_type": 0,
        "meta_classification_type": "U",
        "meta_norad_cat_id": 66468,
        "meta_element_set_no": 999,
        "meta_rev_at_epoch": 565,
        "meta_bstar": 0.0011032454,
        "meta_mean_motion_dot": 0.00045987,
        "meta_mean_motion_ddot": 0,
        "tle_line1": "1 66468U 25262N   25346.83335648  .00045987  00000+0  11032-2 0  9998",
        "tle_line2": "2 66468  43.0006  70.7067 0001748 285.8883 174.4362 15.40652515  5651"
      },
      "geometry": {
        "type": "Point",
        "coordinates": [
          -107.48752791631944,
          -4.536796175983537
        ]
      }
    },
    {
      "type": "Feature",
      "properties": {
        "norad_id": 66469,
        "name": "STARLINK-35451",
        "group": "last-30-days",
        "lat": -42.0763894044116,
        "lon": -8.26589387254945,
        "alt_km": 418.03034055691296,
        "timestamp": "2025-12-13T08:49:14.455319+00:00",
        "meta_object_name": "STARLINK-35451",
        "meta_object_id": "2025-262P",
        "meta_epoch": "2025-12-12T13:03:41.779584",
        "meta_mean_motion": 15.50210236,
        "meta_eccentricity": 0.00011033,
        "meta_inclination": 42.9999,
        "meta_ra_of_asc_node": 72.2116,
        "meta_arg_of_pericenter": 239.0773,
        "meta_mean_anomaly": 120.9979,
        "meta_ephemeris_type": 0,
        "meta_classification_type": "U",
        "meta_norad_cat_id": 66469,
        "meta_element_set_no": 999,
        "meta_rev_at_epoch": 553,
        "meta_bstar": 0.0029076405,
        "meta_mean_motion_dot": 0.00171764,
        "meta_mean_motion_ddot": 0,
        "tle_line1": "1 66469U 25262P   25346.54423356  .00171764  00000+0  29076-2 0  9991",
        "tle_line2": "2 66469  42.9999  72.2116 0001103 239.0773 120.9979 15.50210236  5535"
      },
      "geometry": {
        "type": "Point",
        "coordinates": [
          -8.26589387254945,
          -42.0763894044116
        ]
      }
    },
    {
      "type": "Feature",
      "properties": {
        "norad_id": 66470,
        "name": "STARLINK-35655",
        "group": "last-30-days",
        "lat": -12.884577602109964,
        "lon": -98.19234702583873,
        "alt_km": 445.26034895950943,
        "timestamp": "2025-12-13T08:49:14.455330+00:00",
        "meta_object_name": "STARLINK-35655",
        "meta_object_id": "2025-262Q",
        "meta_epoch": "2025-12-12T20:00:01.999872",
        "meta_mean_motion": 15.40655499,
        "meta_eccentricity": 0.00016425,
        "meta_inclination": 43.0005,
        "meta_ra_of_asc_node": 70.6768,
        "meta_arg_of_pericenter": 283.0255,
        "meta_mean_anomaly": 189.7237,
        "meta_ephemeris_type": 0,
        "meta_classification_type": "U",
        "meta_norad_cat_id": 66470,
        "meta_element_set_no": 999,
        "meta_rev_at_epoch": 565,
        "meta_bstar": 0.001122044,
        "meta_mean_motion_dot": 0.00046786,
        "meta_mean_motion_ddot": 0,
        "tle_line1": "1 66470U 25262Q   25346.83335648  .00046786  00000+0  11220-2 0  9998",
        "tle_line2": "2 66470  43.0005  70.6768 0001642 283.0255 189.7237 15.40655499  5650"
      },
      "geometry": {
        "type": "Point",
        "coordinates": [
          -98.19234702583873,
          -12.884577602109964
        ]
      }
    },
    {
      "type": "Feature",
      "properties": {
        "norad_id": 66471,
        "name": "STARLINK-35569",
        "group": "last-30-days",
        "lat": -20.892314150433194,
        "lon": -88.2526707589529,
        "alt_km": 446.06353517782554,
        "timestamp": "2025-12-13T08:49:14.455341+00:00",
        "meta_object_name": "STARLINK-35569",
        "meta_object_id": "2025-262R",
        "meta_epoch": "2025-12-12T20:00:01.999872",
        "meta_mean_motion": 15.40743257,
        "meta_eccentricity": 9.96e-05,
        "meta_inclination": 43.0005,
        "meta_ra_of_asc_node": 70.6455,
        "meta_arg_of_pericenter": 284.2191,
        "meta_mean_anomaly": 200.9477,
        "meta_ephemeris_type": 0,
        "meta_classification_type": "U",
        "meta_norad_cat_id": 66471,
        "meta_element_set_no": 999,
        "meta_rev_at_epoch": 565,
        "meta_bstar": -0.0021233879,
        "meta_mean_motion_dot": -0.00088109,
        "meta_mean_motion_ddot": 0,
        "tle_line1": "1 66471U 25262R   25346.83335648 -.00088109  00000+0 -21234-2 0  9992",
        "tle_line2": "2 66471  43.0005  70.6455 0000996 284.2191 200.9477 15.40743257  5659"
      },
      "geometry": {
        "type": "Point",
        "coordinates": [
          -88.2526707589529,
          -20.892314150433194
        ]
      }
    },
    {
      "type": "Feature",
      "properties": {
        "norad_id": 66472,
        "name": "STARLINK-35567",
        "group": "last-30-days",
        "lat": -34.52537909378332,
        "lon": -64.91245522256932,
        "alt_km": 447.63939816454604,
        "timestamp": "2025-12-13T08:49:14.455352+00:00",
        "meta_object_name": "STARLINK-35567",
        "meta_object_id": "2025-262S",
        "meta_epoch": "2025-12-12T20:00:01.999872",
        "meta_mean_motion": 15.4103681,
        "meta_eccentricity": 0.00011826,
        "meta_inclination": 43.0005,
        "meta_ra_of_asc_node": 70.5857,
        "meta_arg_of_pericenter": 296.5997,
        "meta_mean_anomaly": 213.2933,
        "meta_ephemeris_type": 0,
        "meta_classification_type": "U",
        "meta_norad_cat_id": 66472,
        "meta_element_set_no": 999,
        "meta_rev_at_epoch": 565,
        "meta_bstar": -0.015250176,
        "meta_mean_motion_dot": -0.00596498,
        "meta_mean_motion_ddot": 0,
        "tle_line1": "1 66472U 25262S   25346.83335648 -.00596498  00000+0 -15250-1 0  9998",
        "tle_line2": "2 66472  43.0005  70.5857 0001182 296.5997 213.2933 15.41036810  5658"
      },
      "geometry": {
        "type": "Point",
        "coordinates": [
          -64.91245522256932,
          -34.52537909378332
        ]
      }
    },
    {
      "type": "Feature",
      "properties": {
        "norad_id": 66473,
        "name": "STARLINK-35568",
        "group": "last-30-days",
        "lat": -38.96974291830197,
        "lon": 7.128172489500009,
        "alt_km": 412.85858683758215,
        "timestamp": "2025-12-13T08:49:14.455363+00:00",
        "meta_object_name": "STARLINK-35568",
        "meta_object_id": "2025-262T",
        "meta_epoch": "2025-12-11T07:39:08.069760",
        "meta_mean_motion": 15.50526439,
        "meta_eccentricity": 0.00047596,
        "meta_inclination": 42.9998,
        "meta_ra_of_asc_node": 79.3576,
        "meta_arg_of_pericenter": 252.6139,
        "meta_mean_anomaly": 107.4201,
        "meta_ephemeris_type": 0,
        "meta_classification_type": "U",
        "meta_norad_cat_id": 66473,
        "meta_element_set_no": 999,
        "meta_rev_at_epoch": 534,
        "meta_bstar": 0.0038259112,
        "meta_mean_motion_dot": 0.00230458,
        "meta_mean_motion_ddot": 0,
        "tle_line1": "1 66473U 25262T   25345.31884340  .00230458  00000+0  38259-2 0  9993",
        "tle_line2": "2 66473  42.9998  79.3576 0004759 252.6139 107.4201 15.50526439  5346"
      },
      "geometry": {
        "type": "Point",
        "coordinates": [
          7.128172489500009,
          -38.96974291830197
        ]
      }
    },
    {
      "type": "Feature",
      "properties": {
        "norad_id": 66474,
        "name": "STARLINK-35620",
        "group": "last-30-days",
        "lat": -38.00720308322049,
        "lon": 10.364077850301895,
        "alt_km": 414.79382015732335,
        "timestamp": "2025-12-13T08:49:14.455377+00:00",
        "meta_object_name": "STARLINK-35620",
        "meta_object_id": "2025-262U",
        "meta_epoch": "2025-12-12T13:00:34.651008",
        "meta_mean_motion": 15.51135131,
        "meta_eccentricity": 0.00014651,
        "meta_inclination": 43.0009,
        "meta_ra_of_asc_node": 72.1929,
        "meta_arg_of_pericenter": 279.0822,
        "meta_mean_anomaly": 80.9873,
        "meta_ephemeris_type": 0,
        "meta_classification_type": "U",
        "meta_norad_cat_id": 66474,
        "meta_element_set_no": 999,
        "meta_rev_at_epoch": 553,
        "meta_bstar": 0.0027986206,
        "meta_mean_motion_dot": 0.00170828,
        "meta_mean_motion_ddot": 0,
        "tle_line1": "1 66474U 25262U   25346.54206772  .00170828  00000+0  27986-2 0  9996",
        "tle_line2": "2 66474  43.0009  72.1929 0001465 279.0822  80.9873 15.51135131  5535"
      },
      "geometry": {
        "type": "Point",
        "coordinates": [
          10.364077850301895,
          -38.00720308322049
        ]
      }
    }
  ]
}